[{"OBJECT_NAME":"ONEWEB-0558","OBJECT_ID":"2023-043P","EPOCH":"2025-09-15T14:08:09.418560","MEAN_MOTION":13.21824588,"ECCENTRICITY":0.0001591,"INCLINATION":87.9202,"RA_OF_ASC_NODE":298.7856,"ARG_OF_PERICENTER":104.6874,"MEAN_ANOMALY":255.4436,"EPHEMERIS_TYPE":0,"CLASSIFICATION_TYPE":"U","NORAD_CAT_ID":56059,"ELEMENT_SET_NO":999,"REV_AT_EPOCH":12196,"BSTAR":-3.415892e-6,"MEAN_MOTION_DOT":1.2e-7,"MEAN_MOTION_DDOT":0},{"OBJECT_NAME":"ONEWEB-0559","OBJECT_ID":"2023-043Q","EPOCH":"2025-09-15T13:52:15.802752","MEAN_MOTION":13.2182689,"ECCENTRICITY":0.0001543,"INCLINATION":87.9202,"RA_OF_ASC_NODE":298.7803,"ARG_OF_PERICENTER":91.4359,"MEAN_ANOMALY":268.6951,"EPHEMERIS_TYPE":0,"CLASSIFICATION_TYPE":"U","NORAD_CAT_ID":56060,"ELEMENT_SET_NO":999,"REV_AT_EPOCH":12197,"BSTAR":-0.00010318062,"MEAN_MOTION_DOT":-3.0e-7,"MEAN_MOTION_DDOT":0},{"OBJECT_NAME":"ONEWEB-0566","OBJECT_ID":"2023-043R","EPOCH":"2025-09-15T13:43:10.485696","MEAN_MOTION":13.21826995,"ECCENTRICITY":0.00015994,"INCLINATION":87.9204,"RA_OF_ASC_NODE":298.7793,"ARG_OF_PERICENTER":98.6807,"MEAN_ANOMALY":261.4508,"EPHEMERIS_TYPE":0,"CLASSIFICATION_TYPE":"U","NORAD_CAT_ID":56061,"ELEMENT_SET_NO":999,"REV_AT_EPOCH":12195,"BSTAR":-2.1725806e-5,"MEAN_MOTION_DOT":4.0e-8,"MEAN_MOTION_DDOT":0},{"OBJECT_NAME":"ONEWEB-0568","OBJECT_ID":"2023-043S","EPOCH":"2025-09-15T14:03:43.739424","MEAN_MOTION":13.16594328,"ECCENTRICITY":0.00022199,"INCLINATION":87.8983,"RA_OF_ASC_NODE":283.4953,"ARG_OF_PERICENTER":95.4275,"MEAN_ANOMALY":264.7109,"EPHEMERIS_TYPE":0,"CLASSIFICATION_TYPE":"U","NORAD_CAT_ID":56062,"ELEMENT_SET_NO":999,"REV_AT_EPOCH":12284,"BSTAR":0.00013253122,"MEAN_MOTION_DOT":6.4e-7,"MEAN_MOTION_DDOT":0},{"OBJECT_NAME":"ONEWEB-0574","OBJECT_ID":"2023-043T","EPOCH":"2025-09-15T13:34:06.681504","MEAN_MOTION":13.21825803,"ECCENTRICITY":0.00020095,"INCLINATION":87.9205,"RA_OF_ASC_NODE":298.7689,"ARG_OF_PERICENTER":89.2606,"MEAN_ANOMALY":270.8759,"EPHEMERIS_TYPE":0,"CLASSIFICATION_TYPE":"U","NORAD_CAT_ID":56063,"ELEMENT_SET_NO":999,"REV_AT_EPOCH":12199,"BSTAR":-6.0788785e-5,"MEAN_MOTION_DOT":-1.2e-7,"MEAN_MOTION_DDOT":0},{"OBJECT_NAME":"ONEWEB-0575","OBJECT_ID":"2023-043U","EPOCH":"2025-09-15T13:54:35.732736","MEAN_MOTION":13.16594228,"ECCENTRICITY":0.00023,"INCLINATION":87.8978,"RA_OF_ASC_NODE":283.5007,"ARG_OF_PERICENTER":85.3838,"MEAN_ANOMALY":274.7556,"EPHEMERIS_TYPE":0,"CLASSIFICATION_TYPE":"U","NORAD_CAT_ID":56064,"ELEMENT_SET_NO":999,"REV_AT_EPOCH":12283,"BSTAR":-4.0258046e-5,"MEAN_MOTION_DOT":-3.0e-8,"MEAN_MOTION_DDOT":0},{"OBJECT_NAME":"ONEWEB-0576","OBJECT_ID":"2023-043V","EPOCH":"2025-09-15T13:27:14.742720","MEAN_MOTION":13.16594189,"ECCENTRICITY":0.00021443,"INCLINATION":87.899,"RA_OF_ASC_NODE":283.4994,"ARG_OF_PERICENTER":92.811,"MEAN_ANOMALY":267.3266,"EPHEMERIS_TYPE":0,"CLASSIFICATION_TYPE":"U","NORAD_CAT_ID":56065,"ELEMENT_SET_NO":999,"REV_AT_EPOCH":12282,"BSTAR":-0.0001630387,"MEAN_MOTION_DOT":-4.9e-7,"MEAN_MOTION_DDOT":0},{"OBJECT_NAME":"ONEWEB-0577","OBJECT_ID":"2023-043W","EPOCH":"2025-09-15T13:36:21.976128","MEAN_MOTION":13.16593726,"ECCENTRICITY":0.00024025,"INCLINATION":87.8986,"RA_OF_ASC_NODE":283.4992,"ARG_OF_PERICENTER":80.2747,"MEAN_ANOMALY":279.8655,"EPHEMERIS_TYPE":0,"CLASSIFICATION_TYPE":"U","NORAD_CAT_ID":56066,"ELEMENT_SET_NO":999,"REV_AT_EPOCH":12285,"BSTAR":-5.649863e-5,"MEAN_MOTION_DOT":-9.0e-8,"MEAN_MOTION_DDOT":0},{"OBJECT_NAME":"ONEWEB-0578","OBJECT_ID":"2023-043X","EPOCH":"2025-09-15T13:15:56.203776","MEAN_MOTION":13.21826615,"ECCENTRICITY":0.00021537,"INCLINATION":87.9199,"RA_OF_ASC_NODE":298.7813,"ARG_OF_PERICENTER":97.4494,"MEAN_ANOMALY":262.6884,"EPHEMERIS_TYPE":0,"CLASSIFICATION_TYPE":"U","NORAD_CAT_ID":56067,"ELEMENT_SET_NO":999,"REV_AT_EPOCH":12195,"BSTAR":-5.2817403e-5,"MEAN_MOTION_DOT":-9.0e-8,"MEAN_MOTION_DDOT":0},{"OBJECT_NAME":"ONEWEB-0579","OBJECT_ID":"2023-043Y","EPOCH":"2025-09-15T13:02:18.852000","MEAN_MOTION":13.21825365,"ECCENTRICITY":0.00016851,"INCLINATION":87.9203,"RA_OF_ASC_NODE":298.7699,"ARG_OF_PERICENTER":91.8139,"MEAN_ANOMALY":268.3188,"EPHEMERIS_TYPE":0,"CLASSIFICATION_TYPE":"U","NORAD_CAT_ID":56068,"ELEMENT_SET_NO":999,"REV_AT_EPOCH":12196,"BSTAR":5.6444202e-5,"MEAN_MOTION_DOT":3.6e-7,"MEAN_MOTION_DDOT":0},{"OBJECT_NAME":"ONEWEB-0581","OBJECT_ID":"2023-043Z","EPOCH":"2025-09-15T13:45:28.326528","MEAN_MOTION":13.16595588,"ECCENTRICITY":0.00020248,"INCLINATION":87.8969,"RA_OF_ASC_NODE":283.5172,"ARG_OF_PERICENTER":79.96,"MEAN_ANOMALY":280.1759,"EPHEMERIS_TYPE":0,"CLASSIFICATION_TYPE":"U","NORAD_CAT_ID":56069,"ELEMENT_SET_NO":999,"REV_AT_EPOCH":12282,"BSTAR":-0.00010457935,"MEAN_MOTION_DOT":-2.7e-7,"MEAN_MOTION_DDOT":0},{"OBJECT_NAME":"ONEWEB-0609","OBJECT_ID":"2023-043AA","EPOCH":"2025-09-15T12:58:41.553408","MEAN_MOTION":13.15549838,"ECCENTRICITY":0.00018526,"INCLINATION":87.9033,"RA_OF_ASC_NODE":314.0216,"ARG_OF_PERICENTER":99.4123,"MEAN_ANOMALY":260.7217,"EPHEMERIS_TYPE":0,"CLASSIFICATION_TYPE":"U","NORAD_CAT_ID":56070,"ELEMENT_SET_NO":999,"REV_AT_EPOCH":12032,"BSTAR":0.00014600419,"MEAN_MOTION_DOT":6.8e-7,"MEAN_MOTION_DDOT":0},{"OBJECT_NAME":"ONEWEB-0613","OBJECT_ID":"2023-043AB","EPOCH":"2025-09-15T12:51:49.133376","MEAN_MOTION":13.15549538,"ECCENTRICITY":0.00016476,"INCLINATION":87.9033,"RA_OF_ASC_NODE":314.0365,"ARG_OF_PERICENTER":94.0335,"MEAN_ANOMALY":266.0984,"EPHEMERIS_TYPE":0,"CLASSIFICATION_TYPE":"U","NORAD_CAT_ID":56071,"ELEMENT_SET_NO":999,"REV_AT_EPOCH":12032,"BSTAR":0.0003302382,"MEAN_MOTION_DOT":1.37e-6,"MEAN_MOTION_DDOT":0},{"OBJECT_NAME":"ONEWEB-0630","OBJECT_ID":"2023-043AC","EPOCH":"2025-09-15T14:34:30.307008","MEAN_MOTION":13.15549295,"ECCENTRICITY":0.00015442,"INCLINATION":87.9026,"RA_OF_ASC_NODE":313.9954,"ARG_OF_PERICENTER":98.5943,"MEAN_ANOMALY":261.5362,"EPHEMERIS_TYPE":0,"CLASSIFICATION_TYPE":"U","NORAD_CAT_ID":56072,"ELEMENT_SET_NO":999,"REV_AT_EPOCH":12032,"BSTAR":0.0001961561,"MEAN_MOTION_DOT":8.7e-7,"MEAN_MOTION_DDOT":0},{"OBJECT_NAME":"ONEWEB-0632","OBJECT_ID":"2023-043AD","EPOCH":"2025-09-15T14:27:38.659392","MEAN_MOTION":13.15549808,"ECCENTRICITY":0.00018609,"INCLINATION":87.9024,"RA_OF_ASC_NODE":314.0164,"ARG_OF_PERICENTER":90.586,"MEAN_ANOMALY":269.5483,"EPHEMERIS_TYPE":0,"CLASSIFICATION_TYPE":"U","NORAD_CAT_ID":56073,"ELEMENT_SET_NO":999,"REV_AT_EPOCH":12032,"BSTAR":0.00028387679,"MEAN_MOTION_DOT":1.2e-6,"MEAN_MOTION_DDOT":0},{"OBJECT_NAME":"ONEWEB-0633","OBJECT_ID":"2023-043AE","EPOCH":"2025-09-15T14:18:31.464864","MEAN_MOTION":13.15550134,"ECCENTRICITY":0.00015361,"INCLINATION":87.9023,"RA_OF_ASC_NODE":313.9813,"ARG_OF_PERICENTER":106.6943,"MEAN_ANOMALY":253.4356,"EPHEMERIS_TYPE":0,"CLASSIFICATION_TYPE":"U","NORAD_CAT_ID":56074,"ELEMENT_SET_NO":999,"REV_AT_EPOCH":12030,"BSTAR":0.00018136909,"MEAN_MOTION_DOT":8.1e-7,"MEAN_MOTION_DDOT":0}]
